start=new Date('2023-04-27T00:00:00.000Z').valueOf();
sats=[{"OBJECT_NAME":"STARLINK-5857","TLE_LINE1":"1 55946U 23037AJ  23116.60935639  .00011282  00000-0  95426-4 0  9992","FILE":"3894261","OBJECT_TYPE":"PAYLOAD","EPHEMERIS_TYPE":"0","ECCENTRICITY":"0.00026580","APOAPSIS":"360.869","NORAD_CAT_ID":"55946","REV_AT_EPOCH":"644","TLE_LINE2":"2 55946  70.0049  69.0544 0002658 291.0153  69.0758 15.69937391  6443","INCLINATION":"70.0049","RA_OF_ASC_NODE":"69.0544","BSTAR":"0.00009542600000","RCS_SIZE":"LARGE","GP_ID":"230802898","MEAN_MOTION_DDOT":"0.0000000000000","REF_FRAME":"TEME","MEAN_MOTION_DOT":"0.00011282","COUNTRY_CODE":"US","PERIOD":"91.723","CENTER_NAME":"EARTH","OBJECT_ID":"2023-037AJ","MEAN_MOTION":"15.69937391","MEAN_ANOMALY":"69.0758","EPOCH":"2023-04-26T14:37:28.392096","TIME_SYSTEM":"UTC","LAUNCH_DATE":"2023-03-17","PERIAPSIS":"357.287","SITE":"AFWTR","CLASSIFICATION_TYPE":"U","SEMIMAJOR_AXIS":"6737.213","ARG_OF_PERICENTER":"291.0153","DECAY_DATE":null,"MEAN_ELEMENT_THEORY":"SGP4","ELEMENT_SET_NO":"999"},{"MEAN_MOTION_DDOT":"0.0000000000000","RCS_SIZE":"LARGE","GP_ID":"230801646","BSTAR":"-0.00000513870000","RA_OF_ASC_NODE":"69.0502","TLE_LINE2":"2 55947  70.0019  69.0502 0003931 269.3734  90.7011 15.69935836  6448","INCLINATION":"70.0019","NORAD_CAT_ID":"55947","REV_AT_EPOCH":"644","EPHEMERIS_TYPE":"0","APOAPSIS":"361.731","ECCENTRICITY":"0.00039310","FILE":"3894261","OBJECT_TYPE":"PAYLOAD","TLE_LINE1":"1 55947U 23037AK  23116.60892541 -.00000831  00000-0 -51387-5 0  9996","OBJECT_NAME":"STARLINK-5851","ELEMENT_SET_NO":"999","MEAN_ELEMENT_THEORY":"SGP4","SEMIMAJOR_AXIS":"6737.218","DECAY_DATE":null,"ARG_OF_PERICENTER":"269.3734","CLASSIFICATION_TYPE":"U","PERIAPSIS":"356.434","SITE":"AFWTR","LAUNCH_DATE":"2023-03-17","TIME_SYSTEM":"UTC","EPOCH":"2023-04-26T14:36:51.155424","MEAN_MOTION":"15.69935836","MEAN_ANOMALY":"90.7011","OBJECT_ID":"2023-037AK","CENTER_NAME":"EARTH","PERIOD":"91.723","COUNTRY_CODE":"US","REF_FRAME":"TEME","MEAN_MOTION_DOT":"-0.00000831"},{"BSTAR":"0.00004194700000","MEAN_MOTION_DDOT":"0.0000000000000","RCS_SIZE":"LARGE","GP_ID":"230801896","RA_OF_ASC_NODE":"69.0470","TLE_LINE2":"2 55948  70.0026  69.0470 0002995 258.2658 101.8202 15.69933772  6445","INCLINATION":"70.0026","NORAD_CAT_ID":"55948","REV_AT_EPOCH":"644","TLE_LINE1":"1 55948U 23037AL  23116.60841178  .00004836  00000-0  41947-4 0  9994","OBJECT_NAME":"STARLINK-5900","EPHEMERIS_TYPE":"0","ECCENTRICITY":"0.00029950","APOAPSIS":"361.106","FILE":"3894261","OBJECT_TYPE":"PAYLOAD","SEMIMAJOR_AXIS":"6737.223","ARG_OF_PERICENTER":"258.2658","DECAY_DATE":null,"CLASSIFICATION_TYPE":"U","ELEMENT_SET_NO":"999","MEAN_ELEMENT_THEORY":"SGP4","TIME_SYSTEM":"UTC","PERIAPSIS":"357.071","SITE":"AFWTR","LAUNCH_DATE":"2023-03-17","OBJECT_ID":"2023-037AL","EPOCH":"2023-04-26T14:36:06.777792","MEAN_MOTION":"15.69933772","MEAN_ANOMALY":"101.8202","REF_FRAME":"TEME","MEAN_MOTION_DOT":"0.00004836","CENTER_NAME":"EARTH","COUNTRY_CODE":"US","PERIOD":"91.724"},{"MEAN_MOTION_DDOT":"0.0000000000000","RCS_SIZE":"LARGE","GP_ID":"230803147","BSTAR":"0.00008332700000","RA_OF_ASC_NODE":"69.0492","TLE_LINE2":"2 55949  70.0032  69.0492 0002537 256.7687 103.3226 15.69923349  6446","INCLINATION":"70.0032","NORAD_CAT_ID":"55949","REV_AT_EPOCH":"644","EPHEMERIS_TYPE":"0","APOAPSIS":"360.828","ECCENTRICITY":"0.00025370","FILE":"3894261","OBJECT_TYPE":"PAYLOAD","TLE_LINE1":"1 55949U 23037AM  23116.60862575  .00009817  00000-0  83327-4 0  9991","OBJECT_NAME":"STARLINK-5899","ELEMENT_SET_NO":"999","MEAN_ELEMENT_THEORY":"SGP4","SEMIMAJOR_AXIS":"6737.253","ARG_OF_PERICENTER":"256.7687","DECAY_DATE":null,"CLASSIFICATION_TYPE":"U","PERIAPSIS":"357.409","SITE":"AFWTR","LAUNCH_DATE":"2023-03-17","TIME_SYSTEM":"UTC","EPOCH":"2023-04-26T14:36:25.264800","MEAN_MOTION":"15.69923349","MEAN_ANOMALY":"103.3226","OBJECT_ID":"2023-037AM","CENTER_NAME":"EARTH","COUNTRY_CODE":"US","PERIOD":"91.724","REF_FRAME":"TEME","MEAN_MOTION_DOT":"0.00009817"},{"BSTAR":"0.00014989000000","GP_ID":"230803398","RCS_SIZE":"LARGE","MEAN_MOTION_DDOT":"0.0000000000000","INCLINATION":"70.0020","TLE_LINE2":"2 55950  70.0020  69.0477 0003269 280.0961  79.9866 15.69951082  6449","RA_OF_ASC_NODE":"69.0477","REV_AT_EPOCH":"644","NORAD_CAT_ID":"55950","OBJECT_NAME":"STARLINK-5911","TLE_LINE1":"1 55950U 23037AN  23116.60819688  .00017868  00000-0  14989-3 0  9992","FILE":"3894261","OBJECT_TYPE":"PAYLOAD","APOAPSIS":"361.241","ECCENTRICITY":"0.00032690","EPHEMERIS_TYPE":"0","CLASSIFICATION_TYPE":"U","ARG_OF_PERICENTER":"280.0961","DECAY_DATE":null,"SEMIMAJOR_AXIS":"6737.174","MEAN_ELEMENT_THEORY":"SGP4","ELEMENT_SET_NO":"999","TIME_SYSTEM":"UTC","LAUNCH_DATE":"2023-03-17","SITE":"AFWTR","PERIAPSIS":"356.837","OBJECT_ID":"2023-037AN","MEAN_ANOMALY":"79.9866","MEAN_MOTION":"15.69951082","EPOCH":"2023-04-26T14:35:48.210432","MEAN_MOTION_DOT":"0.00017868","REF_FRAME":"TEME","COUNTRY_CODE":"US","PERIOD":"91.723","CENTER_NAME":"EARTH"},{"RA_OF_ASC_NODE":"69.9407","TLE_LINE2":"2 55951  70.0016  69.9407 0003147 247.5156 112.5707 15.69946366  6397","INCLINATION":"70.0016","MEAN_MOTION_DDOT":"0.0000000000000","RCS_SIZE":"LARGE","GP_ID":"230776122","BSTAR":"0.00013392000000","EPHEMERIS_TYPE":"0","APOAPSIS":"361.173","ECCENTRICITY":"0.00031470","OBJECT_TYPE":"PAYLOAD","FILE":"3894260","TLE_LINE1":"1 55951U 23037AP  23116.29024410  .00015935  00000-0  13392-3 0  9999","OBJECT_NAME":"STARLINK-5908","NORAD_CAT_ID":"55951","REV_AT_EPOCH":"639","PERIAPSIS":"356.932","SITE":"AFWTR","LAUNCH_DATE":"2023-03-17","TIME_SYSTEM":"UTC","ELEMENT_SET_NO":"999","MEAN_ELEMENT_THEORY":"SGP4","SEMIMAJOR_AXIS":"6737.187","ARG_OF_PERICENTER":"247.5156","DECAY_DATE":null,"CLASSIFICATION_TYPE":"U","CENTER_NAME":"EARTH","COUNTRY_CODE":"US","PERIOD":"91.723","REF_FRAME":"TEME","MEAN_MOTION_DOT":"0.00015935","EPOCH":"2023-04-26T06:57:57.090240","MEAN_MOTION":"15.69946366","MEAN_ANOMALY":"112.5707","OBJECT_ID":"2023-037AP"},{"OBJECT_ID":"2023-037AQ","MEAN_ANOMALY":"94.6697","MEAN_MOTION":"15.69922894","EPOCH":"2023-04-26T14:36:15.804864","MEAN_MOTION_DOT":"0.00005403","REF_FRAME":"TEME","PERIOD":"91.724","COUNTRY_CODE":"US","CENTER_NAME":"EARTH","CLASSIFICATION_TYPE":"U","ARG_OF_PERICENTER":"265.4106","DECAY_DATE":null,"SEMIMAJOR_AXIS":"6737.255","MEAN_ELEMENT_THEORY":"SGP4","ELEMENT_SET_NO":"999","TIME_SYSTEM":"UTC","LAUNCH_DATE":"2023-03-17","SITE":"AFWTR","PERIAPSIS":"356.801","REV_AT_EPOCH":"644","NORAD_CAT_ID":"55952","OBJECT_NAME":"STARLINK-5893","TLE_LINE1":"1 55952U 23037AQ  23116.60851626  .00005403  00000-0  46677-4 0  9994","OBJECT_TYPE":"PAYLOAD","FILE":"3894261","ECCENTRICITY":"0.00034420","APOAPSIS":"361.439","EPHEMERIS_TYPE":"0","BSTAR":"0.00004667700000","GP_ID":"230802396","RCS_SIZE":"LARGE","MEAN_MOTION_DDOT":"0.0000000000000","INCLINATION":"70.0022","TLE_LINE2":"2 55952  70.0022  69.0470 0003442 265.4106  94.6697 15.69922894  6442","RA_OF_ASC_NODE":"69.0470"},{"RA_OF_ASC_NODE":"69.0491","INCLINATION":"70.0020","TLE_LINE2":"2 55953  70.0020  69.0491 0003152 258.3039 101.7803 15.69937223  6449","BSTAR":"0.00002828200000","MEAN_MOTION_DDOT":"0.0000000000000","GP_ID":"230802648","RCS_SIZE":"LARGE","TLE_LINE1":"1 55953U 23037AR  23116.60872109  .00003191  00000-0  28282-4 0  9998","OBJECT_NAME":"STARLINK-5889","ECCENTRICITY":"0.00031520","APOAPSIS":"361.202","EPHEMERIS_TYPE":"0","FILE":"3894261","OBJECT_TYPE":"PAYLOAD","REV_AT_EPOCH":"644","NORAD_CAT_ID":"55953","TIME_SYSTEM":"UTC","SITE":"AFWTR","PERIAPSIS":"356.955","LAUNCH_DATE":"2023-03-17","DECAY_DATE":null,"ARG_OF_PERICENTER":"258.3039","SEMIMAJOR_AXIS":"6737.214","CLASSIFICATION_TYPE":"U","ELEMENT_SET_NO":"999","MEAN_ELEMENT_THEORY":"SGP4","MEAN_MOTION_DOT":"0.00003191","REF_FRAME":"TEME","CENTER_NAME":"EARTH","COUNTRY_CODE":"US","PERIOD":"91.723","OBJECT_ID":"2023-037AR","EPOCH":"2023-04-26T14:36:33.502176","MEAN_ANOMALY":"101.7803","MEAN_MOTION":"15.69937223"},{"BSTAR":"0.00045581000000","RCS_SIZE":"LARGE","GP_ID":"230802899","MEAN_MOTION_DDOT":"0.0000000000000","TLE_LINE2":"2 55954  70.0022  69.0422 0003701 266.8363  93.2409 15.70006656  6446","INCLINATION":"70.0022","RA_OF_ASC_NODE":"69.0422","NORAD_CAT_ID":"55954","REV_AT_EPOCH":"644","OBJECT_NAME":"STARLINK-5892","TLE_LINE1":"1 55954U 23037AS  23116.60745935  .00055147  00000-0  45581-3 0  9993","FILE":"3894261","OBJECT_TYPE":"PAYLOAD","EPHEMERIS_TYPE":"0","APOAPSIS":"361.373","ECCENTRICITY":"0.00037010","CLASSIFICATION_TYPE":"U","SEMIMAJOR_AXIS":"6737.015","ARG_OF_PERICENTER":"266.8363","DECAY_DATE":null,"MEAN_ELEMENT_THEORY":"SGP4","ELEMENT_SET_NO":"999","TIME_SYSTEM":"UTC","LAUNCH_DATE":"2023-03-17","PERIAPSIS":"356.387","SITE":"AFWTR","OBJECT_ID":"2023-037AS","MEAN_MOTION":"15.70006656","MEAN_ANOMALY":"93.2409","EPOCH":"2023-04-26T14:34:44.487840","REF_FRAME":"TEME","MEAN_MOTION_DOT":"0.00055147","COUNTRY_CODE":"US","PERIOD":"91.719","CENTER_NAME":"EARTH"},{"EPOCH":"2023-04-26T14:35:30.517440","MEAN_ANOMALY":"67.8802","MEAN_MOTION":"15.69959706","OBJECT_ID":"2023-037AT","CENTER_NAME":"EARTH","COUNTRY_CODE":"US","PERIOD":"91.722","MEAN_MOTION_DOT":"0.00024611","REF_FRAME":"TEME","ELEMENT_SET_NO":"999","MEAN_ELEMENT_THEORY":"SGP4","ARG_OF_PERICENTER":"292.2059","DECAY_DATE":null,"SEMIMAJOR_AXIS":"6737.149","CLASSIFICATION_TYPE":"U","SITE":"AFWTR","PERIAPSIS":"356.889","LAUNCH_DATE":"2023-03-17","TIME_SYSTEM":"UTC","REV_AT_EPOCH":"644","NORAD_CAT_ID":"55955","APOAPSIS":"361.139","ECCENTRICITY":"0.00031540","EPHEMERIS_TYPE":"0","FILE":"3894261","OBJECT_TYPE":"PAYLOAD","TLE_LINE1":"1 55955U 23037AT  23116.60799210  .00024611  00000-0  20555-3 0  9995","OBJECT_NAME":"STARLINK-5878","MEAN_MOTION_DDOT":"0.0000000000000","GP_ID":"230801647","RCS_SIZE":"LARGE","BSTAR":"0.00020555000000","RA_OF_ASC_NODE":"69.0475","INCLINATION":"70.0023","TLE_LINE2":"2 55955  70.0023  69.0475 0003154 292.2059  67.8802 15.69959706  6448"}];
